GLOBALSTAR M067         
1 32263U 07048A   25185.91864228 -.00000071  00000+0  19576-3 0  9995
2 32263  51.9748 344.0485 0001434  57.1277 106.0719 12.40674468811681
GLOBALSTAR M070         
1 32264U 07048B   25185.87588383 -.00000102  00000+0  79079-5 0  9997
2 32264  51.9757  74.6161 0000713  73.9831   6.5232 12.62319622815905
GLOBALSTAR M066         
1 32265U 07048C   25185.70625728 -.00000078  00000+0  14349-3 0  9994
2 32265  51.9602 335.3516 0003790  21.0286  86.0001 12.29997186817451
GLOBALSTAR M068         
1 32266U 07048D   25185.90450162 -.00000067  00000+0  20513-3 0  9993
2 32266  51.9875 248.2504 0001360 166.5473   4.4968 12.62825761819798
GLOBALSTAR M079         
1 37188U 10054A   25185.91828778 -.00000104  00000+0  13952-5 0  9998
2 37188  52.0042  85.8092 0000745  32.4255  48.1324 12.62265352678693
GLOBALSTAR M074         
1 37189U 10054B   25185.17163336 -.00000100  00000+0  20760-4 0  9999
2 37189  52.0025  87.4044 0000819  51.5869 112.6693 12.62257045679209
GLOBALSTAR M076         
1 37190U 10054C   25185.89160677 -.00000107  00000+0 -15306-4 0  9993
2 37190  52.0034  85.3832 0000905  46.0519  32.5128 12.62263397679019
GLOBALSTAR M077         
1 37191U 10054D   25185.97093840 -.00000100  00000+0  21588-4 0  9991
2 37191  52.0085  42.0034 0000856  72.3149  67.1985 12.62268790679394
